start=new Date('2022-01-29T00:00:00.000Z').valueOf();
sats=[{"ECCENTRICITY":"0.00016000","MEAN_MOTION_DOT":"-0.00001511","PERIOD":"95.593","INCLINATION":"53.0564","MEAN_MOTION_DDOT":"0.0000000000000","SITE":"AFETR","CENTER_NAME":"EARTH","GP_ID":"194845107","EPOCH":"2022-01-28T13:41:48.045408","PERIAPSIS":"546.137","CLASSIFICATION_TYPE":"U","OBJECT_NAME":"STARLINK-2755","EPHEMERIS_TYPE":"0","COUNTRY_CODE":"US","RCS_SIZE":"LARGE","MEAN_ANOMALY":"286.9570","TLE_LINE1":"1 48479U 21040BD  22028.57069497 -.00001511  00000-0 -82610-4 0  9991","LAUNCH_DATE":"2021-05-09","BSTAR":"-0.00008261000000","SEMIMAJOR_AXIS":"6925.381","RA_OF_ASC_NODE":"90.4152","APOAPSIS":"548.354","REV_AT_EPOCH":"4023","DECAY_DATE":null,"REF_FRAME":"TEME","NORAD_CAT_ID":"48479","OBJECT_TYPE":"PAYLOAD","TIME_SYSTEM":"UTC","ARG_OF_PERICENTER":"73.1595","FILE":"3286235","MEAN_ELEMENT_THEORY":"SGP4","TLE_LINE2":"2 48479  53.0564  90.4152 0001600  73.1595 286.9570 15.06389561 40235","ELEMENT_SET_NO":"999","MEAN_MOTION":"15.06389561","OBJECT_ID":"2021-040BD"},{"MEAN_ANOMALY":"288.5876","TLE_LINE1":"1 48480U 21040BE  22028.58450858 -.00000102  00000-0  12043-4 0  9996","SEMIMAJOR_AXIS":"6925.352","LAUNCH_DATE":"2021-05-09","BSTAR":"0.00001204300000","RA_OF_ASC_NODE":"100.3347","EPHEMERIS_TYPE":"0","COUNTRY_CODE":"US","RCS_SIZE":"LARGE","SITE":"AFETR","CENTER_NAME":"EARTH","GP_ID":"194844858","EPOCH":"2022-01-28T14:01:41.541312","PERIAPSIS":"546.344","CLASSIFICATION_TYPE":"U","OBJECT_NAME":"STARLINK-2690","ECCENTRICITY":"0.00012610","MEAN_MOTION_DOT":"-0.00000102","PERIOD":"95.592","INCLINATION":"53.0555","MEAN_MOTION_DDOT":"0.0000000000000","ELEMENT_SET_NO":"999","MEAN_MOTION":"15.06398822","OBJECT_ID":"2021-040BE","OBJECT_TYPE":"PAYLOAD","TIME_SYSTEM":"UTC","FILE":"3286235","ARG_OF_PERICENTER":"71.5250","TLE_LINE2":"2 48480  53.0555 100.3347 0001261  71.5250 288.5876 15.06398822 40098","MEAN_ELEMENT_THEORY":"SGP4","APOAPSIS":"548.090","REV_AT_EPOCH":"4009","DECAY_DATE":null,"REF_FRAME":"TEME","NORAD_CAT_ID":"48480"},{"MEAN_MOTION_DOT":"-0.00000816","ECCENTRICITY":"0.00013210","PERIOD":"95.592","INCLINATION":"53.0559","MEAN_MOTION_DDOT":"0.0000000000000","CENTER_NAME":"EARTH","SITE":"AFETR","GP_ID":"194843606","EPOCH":"2022-01-28T14:21:33.591744","PERIAPSIS":"546.301","CLASSIFICATION_TYPE":"U","OBJECT_NAME":"STARLINK-2706","EPHEMERIS_TYPE":"0","COUNTRY_CODE":"US","RCS_SIZE":"LARGE","MEAN_ANOMALY":"294.2217","TLE_LINE1":"1 48481U 21040BF  22028.59830546 -.00000816  00000-0 -35870-4 0  9990","LAUNCH_DATE":"2021-05-09","BSTAR":"-0.00003587000000","SEMIMAJOR_AXIS":"6925.351","RA_OF_ASC_NODE":"100.2786","APOAPSIS":"548.130","REV_AT_EPOCH":"4009","DECAY_DATE":null,"REF_FRAME":"TEME","NORAD_CAT_ID":"48481","OBJECT_TYPE":"PAYLOAD","TIME_SYSTEM":"UTC","ARG_OF_PERICENTER":"65.8910","FILE":"3286235","TLE_LINE2":"2 48481  53.0559 100.2786 0001321  65.8910 294.2217 15.06399361 40097","MEAN_ELEMENT_THEORY":"SGP4","ELEMENT_SET_NO":"999","MEAN_MOTION":"15.06399361","OBJECT_ID":"2021-040BF"},{"APOAPSIS":"548.178","NORAD_CAT_ID":"48482","REF_FRAME":"TEME","DECAY_DATE":null,"REV_AT_EPOCH":"4007","TIME_SYSTEM":"UTC","OBJECT_TYPE":"PAYLOAD","MEAN_ELEMENT_THEORY":"SGP4","TLE_LINE2":"2 48482  53.0552 100.9058 0001364  71.2043 288.9094 15.06393691 40076","FILE":"3285972","ARG_OF_PERICENTER":"71.2043","MEAN_MOTION":"15.06393691","ELEMENT_SET_NO":"999","OBJECT_ID":"2021-040BG","PERIOD":"95.593","MEAN_MOTION_DOT":"-0.00001348","ECCENTRICITY":"0.00013640","MEAN_MOTION_DDOT":"0.0000000000000","INCLINATION":"53.0552","CENTER_NAME":"EARTH","SITE":"AFETR","CLASSIFICATION_TYPE":"U","OBJECT_NAME":"STARLINK-2525","EPOCH":"2022-01-28T11:01:13.876032","PERIAPSIS":"546.288","GP_ID":"194813311","EPHEMERIS_TYPE":"0","RCS_SIZE":"LARGE","COUNTRY_CODE":"US","TLE_LINE1":"1 48482U 21040BG  22028.45918838 -.00001348  00000-0 -71660-4 0  9995","MEAN_ANOMALY":"288.9094","RA_OF_ASC_NODE":"100.9058","BSTAR":"-0.00007166000000","LAUNCH_DATE":"2021-05-09","SEMIMAJOR_AXIS":"6925.368"},{"CENTER_NAME":"EARTH","SITE":"AFETR","GP_ID":"194844608","CLASSIFICATION_TYPE":"U","OBJECT_NAME":"STARLINK-2531","EPOCH":"2022-01-28T14:07:00.645024","PERIAPSIS":"546.074","ECCENTRICITY":"0.00016650","MEAN_MOTION_DOT":"-0.00001039","PERIOD":"95.592","MEAN_MOTION_DDOT":"0.0000000000000","INCLINATION":"53.0560","TLE_LINE1":"1 48483U 21040BH  22028.58820191 -.00001039  00000-0 -50868-4 0  9998","MEAN_ANOMALY":"302.9931","RA_OF_ASC_NODE":"100.3239","LAUNCH_DATE":"2021-05-09","BSTAR":"-0.00005086800000","SEMIMAJOR_AXIS":"6925.362","EPHEMERIS_TYPE":"0","COUNTRY_CODE":"US","RCS_SIZE":"LARGE","OBJECT_TYPE":"PAYLOAD","TIME_SYSTEM":"UTC","ARG_OF_PERICENTER":"57.1218","FILE":"3286235","MEAN_ELEMENT_THEORY":"SGP4","TLE_LINE2":"2 48483  53.0560 100.3239 0001665  57.1218 302.9931 15.06395659 40097","APOAPSIS":"548.380","DECAY_DATE":null,"REV_AT_EPOCH":"4009","NORAD_CAT_ID":"48483","REF_FRAME":"TEME","MEAN_MOTION":"15.06395659","ELEMENT_SET_NO":"999","OBJECT_ID":"2021-040BH"},{"SITE":"AFETR","CENTER_NAME":"EARTH","PERIAPSIS":"546.271","EPOCH":"2022-01-28T15:09:20.265120","CLASSIFICATION_TYPE":"U","OBJECT_NAME":"STARLINK-2696","GP_ID":"194845358","PERIOD":"95.592","MEAN_MOTION_DOT":"0.00001933","ECCENTRICITY":"0.00013490","INCLINATION":"53.0545","MEAN_MOTION_DDOT":"0.0000000000000","MEAN_ANOMALY":"290.5203","TLE_LINE1":"1 48484U 21040BJ  22028.63148455  .00001933  00000-0  14859-3 0  9991","SEMIMAJOR_AXIS":"6925.341","LAUNCH_DATE":"2021-05-09","BSTAR":"0.00014859000000","RA_OF_ASC_NODE":"100.1214","EPHEMERIS_TYPE":"0","RCS_SIZE":"LARGE","COUNTRY_CODE":"US","TIME_SYSTEM":"UTC","OBJECT_TYPE":"PAYLOAD","TLE_LINE2":"2 48484  53.0545 100.1214 0001349  69.5931 290.5203 15.06402561 40107","MEAN_ELEMENT_THEORY":"SGP4","FILE":"3286235","ARG_OF_PERICENTER":"69.5931","APOAPSIS":"548.140","REF_FRAME":"TEME","NORAD_CAT_ID":"48484","REV_AT_EPOCH":"4010","DECAY_DATE":null,"ELEMENT_SET_NO":"999","MEAN_MOTION":"15.06402561","OBJECT_ID":"2021-040BJ"},{"RA_OF_ASC_NODE":"100.2912","SEMIMAJOR_AXIS":"6925.385","LAUNCH_DATE":"2021-05-09","BSTAR":"-0.00005421900000","TLE_LINE1":"1 48485U 21040BK  22028.59556974 -.00001089  00000-0 -54219-4 0  9995","MEAN_ANOMALY":"288.2148","RCS_SIZE":"LARGE","COUNTRY_CODE":"US","EPHEMERIS_TYPE":"0","CLASSIFICATION_TYPE":"U","OBJECT_NAME":"STARLINK-2500","PERIAPSIS":"546.191","EPOCH":"2022-01-28T14:17:37.225536","GP_ID":"194844106","CENTER_NAME":"EARTH","SITE":"AFETR","MEAN_MOTION_DDOT":"0.0000000000000","INCLINATION":"53.0564","PERIOD":"95.593","MEAN_MOTION_DOT":"-0.00001089","ECCENTRICITY":"0.00015300","OBJECT_ID":"2021-040BK","MEAN_MOTION":"15.06388069","ELEMENT_SET_NO":"999","TLE_LINE2":"2 48485  53.0564 100.2912 0001530  71.9008 288.2148 15.06388069 40095","MEAN_ELEMENT_THEORY":"SGP4","ARG_OF_PERICENTER":"71.9008","FILE":"3286235","TIME_SYSTEM":"UTC","OBJECT_TYPE":"PAYLOAD","NORAD_CAT_ID":"48485","REF_FRAME":"TEME","DECAY_DATE":null,"REV_AT_EPOCH":"4009","APOAPSIS":"548.310"},{"MEAN_MOTION":"15.06390354","ELEMENT_SET_NO":"999","OBJECT_ID":"2021-040BL","OBJECT_TYPE":"PAYLOAD","TIME_SYSTEM":"UTC","FILE":"3286235","ARG_OF_PERICENTER":"72.3797","MEAN_ELEMENT_THEORY":"SGP4","TLE_LINE2":"2 48486  53.0558  99.9734 0001519  72.3797 287.7358 15.06390354 40101","APOAPSIS":"548.295","DECAY_DATE":null,"REV_AT_EPOCH":"4010","NORAD_CAT_ID":"48486","REF_FRAME":"TEME","TLE_LINE1":"1 48486U 21040BL  22028.66560754 -.00000405  00000-0 -82931-5 0  9999","MEAN_ANOMALY":"287.7358","RA_OF_ASC_NODE":"99.9734","LAUNCH_DATE":"2021-05-09","SEMIMAJOR_AXIS":"6925.378","BSTAR":"-0.00000829310000","EPHEMERIS_TYPE":"0","COUNTRY_CODE":"US","RCS_SIZE":"LARGE","SITE":"AFETR","CENTER_NAME":"EARTH","GP_ID":"194844356","OBJECT_NAME":"STARLINK-2496","CLASSIFICATION_TYPE":"U","PERIAPSIS":"546.191","EPOCH":"2022-01-28T15:58:28.491456","MEAN_MOTION_DOT":"-0.00000405","ECCENTRICITY":"0.00015190","PERIOD":"95.593","MEAN_MOTION_DDOT":"0.0000000000000","INCLINATION":"53.0558"},{"OBJECT_TYPE":"PAYLOAD","TIME_SYSTEM":"UTC","ARG_OF_PERICENTER":"62.6715","FILE":"3286235","TLE_LINE2":"2 48487  53.0551  99.9762 0001466  62.6715 297.4423 15.06401208 40112","MEAN_ELEMENT_THEORY":"SGP4","APOAPSIS":"548.225","REV_AT_EPOCH":"4011","DECAY_DATE":null,"REF_FRAME":"TEME","NORAD_CAT_ID":"48487","ELEMENT_SET_NO":"999","MEAN_MOTION":"15.06401208","OBJECT_ID":"2021-040BM","CENTER_NAME":"EARTH","SITE":"AFETR","GP_ID":"194845108","PERIAPSIS":"546.195","EPOCH":"2022-01-28T16:03:45.702144","CLASSIFICATION_TYPE":"U","OBJECT_NAME":"STARLINK-2494","ECCENTRICITY":"0.00014660","MEAN_MOTION_DOT":"-0.00000376","PERIOD":"95.592","INCLINATION":"53.0551","MEAN_MOTION_DDOT":"0.0000000000000","MEAN_ANOMALY":"297.4423","TLE_LINE1":"1 48487U 21040BM  22028.66927896 -.00000376  00000-0 -63410-5 0  9992","BSTAR":"-0.00000634100000","LAUNCH_DATE":"2021-05-09","SEMIMAJOR_AXIS":"6925.345","RA_OF_ASC_NODE":"99.9762","EPHEMERIS_TYPE":"0","COUNTRY_CODE":"US","RCS_SIZE":"LARGE"},{"MEAN_MOTION":"15.06403645","ELEMENT_SET_NO":"999","OBJECT_ID":"2021-041A","TIME_SYSTEM":"UTC","OBJECT_TYPE":"PAYLOAD","TLE_LINE2":"2 48553  53.0554  31.2606 0001230  76.6635 283.4492 15.06403645 38924","MEAN_ELEMENT_THEORY":"SGP4","ARG_OF_PERICENTER":"76.6635","FILE":"3285972","APOAPSIS":"548.054","NORAD_CAT_ID":"48553","REF_FRAME":"TEME","DECAY_DATE":null,"REV_AT_EPOCH":"3892","TLE_LINE1":"1 48553U 21041A   22028.38086120  .00001310  00000-0  10681-3 0  9999","MEAN_ANOMALY":"283.4492","RA_OF_ASC_NODE":"31.2606","LAUNCH_DATE":"2021-05-15","BSTAR":"0.00010681000000","SEMIMAJOR_AXIS":"6925.337","EPHEMERIS_TYPE":"0","RCS_SIZE":"LARGE","COUNTRY_CODE":"US","CENTER_NAME":"EARTH","SITE":"AFETR","OBJECT_NAME":"STARLINK-2063","CLASSIFICATION_TYPE":"U","PERIAPSIS":"546.351","EPOCH":"2022-01-28T09:08:26.407680","GP_ID":"194816574","PERIOD":"95.592","ECCENTRICITY":"0.00012300","MEAN_MOTION_DOT":"0.00001310","MEAN_MOTION_DDOT":"0.0000000000000","INCLINATION":"53.0554"}];
